start=new Date('2021-09-05T00:00:00.000Z').valueOf();
sats=[{"OBJECT_ID":"2021-038BF","EPOCH":"2021-09-04T22:00:00.999936","MEAN_MOTION":"15.06418411","FILE":"3108751","GP_ID":"184106471","MEAN_MOTION_DDOT":"0.0000000000000","TLE_LINE1":"1 48406U 21038BF  21247.91667824 -.00022994  00000-0 -15289-2 0  9990","ELEMENT_SET_NO":"999","TIME_SYSTEM":"UTC","REF_FRAME":"TEME","CENTER_NAME":"EARTH","ARG_OF_PERICENTER":"72.5403","MEAN_MOTION_DOT":"-0.00022994","ECCENTRICITY":"0.00023520","LAUNCH_DATE":"2021-05-04","PERIAPSIS":"545.528","TLE_LINE2":"2 48406  53.0537 174.2562 0002352  72.5403 220.1821 15.06418411  3591","RA_OF_ASC_NODE":"174.2562","REV_AT_EPOCH":"359","MEAN_ELEMENT_THEORY":"SGP4","BSTAR":"-0.00152890000000","DECAY_DATE":null,"RCS_SIZE":"LARGE","CLASSIFICATION_TYPE":"U","PERIOD":"95.591","APOAPSIS":"548.786","OBJECT_TYPE":"PAYLOAD","SITE":"AFETR","INCLINATION":"53.0537","NORAD_CAT_ID":"48406","MEAN_ANOMALY":"220.1821","SEMIMAJOR_AXIS":"6925.292","OBJECT_NAME":"STARLINK-2568","EPHEMERIS_TYPE":"0","COUNTRY_CODE":"US"},{"FILE":"3108751","OBJECT_ID":"2021-038BG","MEAN_MOTION":"15.06442017","EPOCH":"2021-09-04T22:00:00.999936","TLE_LINE1":"1 48407U 21038BG  21247.91667824 -.00069289  00000-0 -46727-2 0  9990","GP_ID":"184106378","MEAN_MOTION_DDOT":"0.0000000000000","ELEMENT_SET_NO":"999","TIME_SYSTEM":"UTC","CENTER_NAME":"EARTH","ARG_OF_PERICENTER":"80.5264","REF_FRAME":"TEME","PERIAPSIS":"545.543","LAUNCH_DATE":"2021-05-04","ECCENTRICITY":"0.00022270","MEAN_MOTION_DOT":"-0.00069289","BSTAR":"-0.00467270000000","TLE_LINE2":"2 48407  53.0461 174.2996 0002227  80.5264 232.1724 15.06442017  3598","RA_OF_ASC_NODE":"174.2996","MEAN_ELEMENT_THEORY":"SGP4","REV_AT_EPOCH":"359","PERIOD":"95.589","APOAPSIS":"548.627","DECAY_DATE":null,"RCS_SIZE":"LARGE","CLASSIFICATION_TYPE":"U","OBJECT_TYPE":"PAYLOAD","SITE":"AFETR","INCLINATION":"53.0461","NORAD_CAT_ID":"48407","MEAN_ANOMALY":"232.1724","EPHEMERIS_TYPE":"0","COUNTRY_CODE":"US","SEMIMAJOR_AXIS":"6925.220","OBJECT_NAME":"STARLINK-2595"},{"MEAN_ANOMALY":"263.4323","COUNTRY_CODE":"US","EPHEMERIS_TYPE":"0","SEMIMAJOR_AXIS":"6925.346","OBJECT_NAME":"STARLINK-2592","NORAD_CAT_ID":"48408","OBJECT_TYPE":"PAYLOAD","SITE":"AFETR","INCLINATION":"53.0510","PERIOD":"95.592","APOAPSIS":"548.671","RCS_SIZE":"LARGE","DECAY_DATE":null,"CLASSIFICATION_TYPE":"U","LAUNCH_DATE":"2021-05-04","PERIAPSIS":"545.751","ECCENTRICITY":"0.00021080","MEAN_MOTION_DOT":"-0.00021799","BSTAR":"-0.00144890000000","TLE_LINE2":"2 48408  53.0510 174.2670 0002108  69.3810 263.4323 15.06400947  3591","RA_OF_ASC_NODE":"174.2670","MEAN_ELEMENT_THEORY":"SGP4","REV_AT_EPOCH":"359","TIME_SYSTEM":"UTC","CENTER_NAME":"EARTH","ARG_OF_PERICENTER":"69.3810","REF_FRAME":"TEME","TLE_LINE1":"1 48408U 21038BH  21247.91667824 -.00021799  00000-0 -14489-2 0  9995","GP_ID":"184106564","MEAN_MOTION_DDOT":"0.0000000000000","ELEMENT_SET_NO":"999","FILE":"3108751","OBJECT_ID":"2021-038BH","EPOCH":"2021-09-04T22:00:00.999936","MEAN_MOTION":"15.06400947"},{"MEAN_ANOMALY":"137.2003","SEMIMAJOR_AXIS":"6925.246","OBJECT_NAME":"STARLINK-2596","COUNTRY_CODE":"US","EPHEMERIS_TYPE":"0","NORAD_CAT_ID":"48409","OBJECT_TYPE":"PAYLOAD","SITE":"AFETR","INCLINATION":"53.0536","DECAY_DATE":null,"RCS_SIZE":"LARGE","CLASSIFICATION_TYPE":"U","PERIOD":"95.590","APOAPSIS":"548.668","ECCENTRICITY":"0.00022480","MEAN_MOTION_DOT":"-0.00053352","PERIAPSIS":"545.554","LAUNCH_DATE":"2021-05-04","TLE_LINE2":"2 48409  53.0536 179.2603 0002248  68.0306 137.2003 15.06433512  3599","RA_OF_ASC_NODE":"179.2603","MEAN_ELEMENT_THEORY":"SGP4","REV_AT_EPOCH":"359","BSTAR":"-0.00358630000000","TIME_SYSTEM":"UTC","REF_FRAME":"TEME","CENTER_NAME":"EARTH","ARG_OF_PERICENTER":"68.0306","GP_ID":"184106605","MEAN_MOTION_DDOT":"0.0000000000000","TLE_LINE1":"1 48409U 21038BJ  21247.91667824 -.00053352  00000-0 -35863-2 0  9995","ELEMENT_SET_NO":"999","OBJECT_ID":"2021-038BJ","MEAN_MOTION":"15.06433512","EPOCH":"2021-09-04T22:00:00.999936","FILE":"3108751"},{"NORAD_CAT_ID":"48410","EPHEMERIS_TYPE":"0","COUNTRY_CODE":"US","OBJECT_NAME":"STARLINK-2563","SEMIMAJOR_AXIS":"6727.698","MEAN_ANOMALY":"41.1221","APOAPSIS":"352.209","PERIOD":"91.529","CLASSIFICATION_TYPE":"U","RCS_SIZE":"LARGE","DECAY_DATE":null,"INCLINATION":"53.0495","SITE":"AFETR","OBJECT_TYPE":"PAYLOAD","ARG_OF_PERICENTER":"5.7416","CENTER_NAME":"EARTH","REF_FRAME":"TEME","TIME_SYSTEM":"UTC","BSTAR":"-0.00052087000000","REV_AT_EPOCH":"370","MEAN_ELEMENT_THEORY":"SGP4","RA_OF_ASC_NODE":"152.2311","TLE_LINE2":"2 48410  53.0495 152.2311 0003934   5.7416  41.1221 15.73269258  3701","PERIAPSIS":"346.916","LAUNCH_DATE":"2021-05-04","MEAN_MOTION_DOT":"-0.00073357","ECCENTRICITY":"0.00039340","FILE":"3108751","EPOCH":"2021-09-04T22:00:00.999936","MEAN_MOTION":"15.73269258","OBJECT_ID":"2021-038BK","ELEMENT_SET_NO":"999","TLE_LINE1":"1 48410U 21038BK  21247.91667824 -.00073357  00000-0 -52087-3 0  9992","GP_ID":"184106793","MEAN_MOTION_DDOT":"0.0000000000000"},{"DECAY_DATE":null,"RCS_SIZE":"LARGE","CLASSIFICATION_TYPE":"U","PERIOD":"91.530","APOAPSIS":"352.101","OBJECT_TYPE":"PAYLOAD","SITE":"AFETR","INCLINATION":"53.0494","NORAD_CAT_ID":"48411","MEAN_ANOMALY":"43.1499","SEMIMAJOR_AXIS":"6727.745","OBJECT_NAME":"STARLINK-2505","COUNTRY_CODE":"US","EPHEMERIS_TYPE":"0","OBJECT_ID":"2021-038BL","EPOCH":"2021-09-04T22:00:00.999936","MEAN_MOTION":"15.73252674","FILE":"3108751","MEAN_MOTION_DDOT":"0.0000000000000","GP_ID":"184106699","TLE_LINE1":"1 48411U 21038BL  21247.91667824 -.00072067  00000-0 -51195-3 0  9999","ELEMENT_SET_NO":"999","TIME_SYSTEM":"UTC","REF_FRAME":"TEME","CENTER_NAME":"EARTH","ARG_OF_PERICENTER":"4.3627","MEAN_MOTION_DOT":"-0.00072067","ECCENTRICITY":"0.00037030","PERIAPSIS":"347.119","LAUNCH_DATE":"2021-05-04","TLE_LINE2":"2 48411  53.0494 152.2269 0003703   4.3627  43.1499 15.73252674  3709","RA_OF_ASC_NODE":"152.2269","MEAN_ELEMENT_THEORY":"SGP4","REV_AT_EPOCH":"370","BSTAR":"-0.00051195000000"},{"NORAD_CAT_ID":"48412","COUNTRY_CODE":"US","EPHEMERIS_TYPE":"0","SEMIMAJOR_AXIS":"6727.846","OBJECT_NAME":"STARLINK-2581","MEAN_ANOMALY":"40.5201","PERIOD":"91.532","APOAPSIS":"352.263","RCS_SIZE":"LARGE","DECAY_DATE":null,"CLASSIFICATION_TYPE":"U","SITE":"AFETR","INCLINATION":"53.0495","OBJECT_TYPE":"PAYLOAD","CENTER_NAME":"EARTH","ARG_OF_PERICENTER":"7.6313","REF_FRAME":"TEME","TIME_SYSTEM":"UTC","BSTAR":"-0.00003704000000","TLE_LINE2":"2 48412  53.0495 152.2289 0003794   7.6313  40.5201 15.73217324  3706","RA_OF_ASC_NODE":"152.2289","REV_AT_EPOCH":"370","MEAN_ELEMENT_THEORY":"SGP4","PERIAPSIS":"347.158","LAUNCH_DATE":"2021-05-04","ECCENTRICITY":"0.00037940","MEAN_MOTION_DOT":"-0.00005827","FILE":"3108751","OBJECT_ID":"2021-038BM","MEAN_MOTION":"15.73217324","EPOCH":"2021-09-04T22:00:00.999936","ELEMENT_SET_NO":"999","TLE_LINE1":"1 48412U 21038BM  21247.91667824 -.00005827  00000-0 -37040-4 0  9994","MEAN_MOTION_DDOT":"0.0000000000000","GP_ID":"184106887"},{"NORAD_CAT_ID":"48428","MEAN_ANOMALY":"189.6203","EPHEMERIS_TYPE":"0","COUNTRY_CODE":"US","SEMIMAJOR_AXIS":"6925.326","OBJECT_NAME":"STARLINK-2461","PERIOD":"95.592","APOAPSIS":"547.983","RCS_SIZE":"LARGE","DECAY_DATE":null,"CLASSIFICATION_TYPE":"U","OBJECT_TYPE":"PAYLOAD","SITE":"AFETR","INCLINATION":"53.0553","TIME_SYSTEM":"UTC","CENTER_NAME":"EARTH","ARG_OF_PERICENTER":"115.5925","REF_FRAME":"TEME","LAUNCH_DATE":"2021-05-09","PERIAPSIS":"546.400","MEAN_MOTION_DOT":"-0.00005708","ECCENTRICITY":"0.00011430","BSTAR":"-0.00036452000000","TLE_LINE2":"2 48428  53.0553  19.2580 0001143 115.5925 189.6203 15.06407281  3591","RA_OF_ASC_NODE":"19.2580","REV_AT_EPOCH":"359","MEAN_ELEMENT_THEORY":"SGP4","FILE":"3108751","OBJECT_ID":"2021-040A","EPOCH":"2021-09-04T22:00:00.999936","MEAN_MOTION":"15.06407281","TLE_LINE1":"1 48428U 21040A   21247.91667824 -.00005708  00000-0 -36452-3 0  9997","GP_ID":"184106566","MEAN_MOTION_DDOT":"0.0000000000000","ELEMENT_SET_NO":"999"},{"FILE":"3108751","MEAN_MOTION":"15.54857791","EPOCH":"2021-09-04T22:00:00.999936","OBJECT_ID":"2021-040B","ELEMENT_SET_NO":"999","TLE_LINE1":"1 48429U 21040B   21247.91667824 -.00861729  00000-0 -13900-1 0  9992","GP_ID":"184106607","MEAN_MOTION_DDOT":"0.0000000000000","ARG_OF_PERICENTER":"88.7390","CENTER_NAME":"EARTH","REF_FRAME":"TEME","TIME_SYSTEM":"UTC","BSTAR":"-0.01390000000000","REV_AT_EPOCH":"369","MEAN_ELEMENT_THEORY":"SGP4","RA_OF_ASC_NODE":"353.9985","TLE_LINE2":"2 48429  53.0483 353.9985 0001138  88.7390 214.0472 15.54857791  3692","PERIAPSIS":"401.796","LAUNCH_DATE":"2021-05-09","ECCENTRICITY":"0.00011380","MEAN_MOTION_DOT":"-0.00861729","APOAPSIS":"403.340","PERIOD":"92.613","CLASSIFICATION_TYPE":"U","RCS_SIZE":"LARGE","DECAY_DATE":null,"INCLINATION":"53.0483","SITE":"AFETR","OBJECT_TYPE":"PAYLOAD","NORAD_CAT_ID":"48429","EPHEMERIS_TYPE":"0","COUNTRY_CODE":"US","OBJECT_NAME":"STARLINK-2749","SEMIMAJOR_AXIS":"6780.703","MEAN_ANOMALY":"214.0472"},{"MEAN_ANOMALY":"260.7412","EPHEMERIS_TYPE":"0","COUNTRY_CODE":"US","SEMIMAJOR_AXIS":"6779.027","OBJECT_NAME":"STARLINK-2729","NORAD_CAT_ID":"48430","OBJECT_TYPE":"PAYLOAD","SITE":"AFETR","INCLINATION":"53.0483","PERIOD":"92.579","APOAPSIS":"401.633","RCS_SIZE":"LARGE","DECAY_DATE":null,"CLASSIFICATION_TYPE":"U","LAUNCH_DATE":"2021-05-09","PERIAPSIS":"400.151","MEAN_MOTION_DOT":"-0.00809120","ECCENTRICITY":"0.00010930","BSTAR":"-0.01270300000000","TLE_LINE2":"2 48430  53.0483 354.0351 0001093  64.2641 260.7412 15.55434573  3660","RA_OF_ASC_NODE":"354.0351","MEAN_ELEMENT_THEORY":"SGP4","REV_AT_EPOCH":"366","TIME_SYSTEM":"UTC","CENTER_NAME":"EARTH","ARG_OF_PERICENTER":"64.2641","REF_FRAME":"TEME","TLE_LINE1":"1 48430U 21040C   21247.91667824 -.00809120  00000-0 -12703-1 0  9991","GP_ID":"184106795","MEAN_MOTION_DDOT":"0.0000000000000","ELEMENT_SET_NO":"999","FILE":"3108751","OBJECT_ID":"2021-040C","MEAN_MOTION":"15.55434573","EPOCH":"2021-09-04T22:00:00.999936"}];
